{
  "type": "FeatureCollection",
  "features": [
    {
      "type": "Feature",
      "properties": { "name": "Tiergarten" },
      "geometry": {
        "type": "Polygon",
        "coordinates": [[[13.336, 52.5165], [13.3445, 52.5195], [13.3755, 52.5165], [13.3765, 52.5115], [13.3625, 52.5085], [13.3385, 52.5095], [13.336, 52.5165]]]
      }
    },
    {
      "type": "Feature",
      "properties": { "name": "Riverside walk" },
      "geometry": {
        "type": "LineString",
        "coordinates": [[13.3765, 52.5195], [13.3885, 52.5205], [13.3975, 52.5215], [13.4035, 52.5185], [13.4115, 52.5145], [13.4255, 52.5115], [13.4395, 52.5055]]
      }
    },
    { "type": "Feature", "properties": { "name": "Brandenburg Gate" }, "geometry": { "type": "Point", "coordinates": [13.3777, 52.5163] } },
    { "type": "Feature", "properties": { "name": "Museum Island" }, "geometry": { "type": "Point", "coordinates": [13.4019, 52.5169] } },
    { "type": "Feature", "properties": { "name": "East Side Gallery" }, "geometry": { "type": "Point", "coordinates": [13.4397, 52.505] } }
  ]
}
